{
  "type": "FeatureCollection",
  "features": [
    {
      "type": "Feature",
      "properties": {
        "norad_id": 67018,
        "name": "STARLINK-36106",
        "group": "last-30-days",
        "lat": -44.3729597697779,
        "lon": 137.9148293549927,
        "alt_km": 308.3062220319662,
        "timestamp": "2025-12-21T22:41:40.167786+00:00",
        "meta_object_name": "STARLINK-36106",
        "meta_object_id": "2025-293R",
        "meta_epoch": "2025-12-21T14:00:01.999872",
        "meta_mean_motion": 15.90104248,
        "meta_eccentricity": 0.0004622,
        "meta_inclination": 69.9925,
        "meta_ra_of_asc_node": 298.0779,
        "meta_arg_of_pericenter": 269.3138,
        "meta_mean_anomaly": 46.2903,
        "meta_ephemeris_type": 0,
        "meta_classification_type": "U",
        "meta_norad_cat_id": 67018,
        "meta_element_set_no": 999,
        "meta_rev_at_epoch": 164,
        "meta_bstar": -0.0039758265,
        "meta_mean_motion_dot": -0.01196683,
        "meta_mean_motion_ddot": 0.00041327507,
        "tle_line1": "1 67018U 25293R   25355.58335648 -.01196683  41328-3 -39758-2 0  9996",
        "tle_line2": "2 67018  69.9925 298.0779 0004622 269.3138  46.2903 15.90104248  1641"
      },
      "geometry": {
        "type": "Point",
        "coordinates": [
          137.9148293549927,
          -44.3729597697779
        ]
      }
    },
    {
      "type": "Feature",
      "properties": {
        "norad_id": 67019,
        "name": "STARLINK-35688",
        "group": "last-30-days",
        "lat": -46.45741485240388,
        "lon": 139.572014692804,
        "alt_km": 308.3184913797131,
        "timestamp": "2025-12-21T22:41:40.167796+00:00",
        "meta_object_name": "STARLINK-35688",
        "meta_object_id": "2025-293S",
        "meta_epoch": "2025-12-21T14:00:01.999872",
        "meta_mean_motion": 15.90121843,
        "meta_eccentricity": 0.00043341,
        "meta_inclination": 69.9925,
        "meta_ra_of_asc_node": 298.0751,
        "meta_arg_of_pericenter": 264.0359,
        "meta_mean_anomaly": 53.9458,
        "meta_ephemeris_type": 0,
        "meta_classification_type": "U",
        "meta_norad_cat_id": 67019,
        "meta_element_set_no": 999,
        "meta_rev_at_epoch": 172,
        "meta_bstar": -0.0040903712,
        "meta_mean_motion_dot": -0.01231785,
        "meta_mean_motion_ddot": 0.00043600502,
        "tle_line1": "1 67019U 25293S   25355.58335648 -.01231785  43601-3 -40904-2 0  9991",
        "tle_line2": "2 67019  69.9925 298.0751 0004334 264.0359  53.9458 15.90121843  1728"
      },
      "geometry": {
        "type": "Point",
        "coordinates": [
          139.572014692804,
          -46.45741485240388
        ]
      }
    },
    {
      "type": "Feature",
      "properties": {
        "norad_id": 67020,
        "name": "STARLINK-36172",
        "group": "last-30-days",
        "lat": -49.03780858086679,
        "lon": 141.8416313603087,
        "alt_km": 308.442607236394,
        "timestamp": "2025-12-21T22:41:40.167808+00:00",
        "meta_object_name": "STARLINK-36172",
        "meta_object_id": "2025-293T",
        "meta_epoch": "2025-12-21T14:00:01.999872",
        "meta_mean_motion": 15.90177581,
        "meta_eccentricity": 0.00042839,
        "meta_inclination": 69.9923,
        "meta_ra_of_asc_node": 298.0716,
        "meta_arg_of_pericenter": 262.4984,
        "meta_mean_anomaly": 58.4744,
        "meta_ephemeris_type": 0,
        "meta_classification_type": "U",
        "meta_norad_cat_id": 67020,
        "meta_element_set_no": 999,
        "meta_rev_at_epoch": 164,
        "meta_bstar": -0.0045376089,
        "meta_mean_motion_dot": -0.01368881,
        "meta_mean_motion_ddot": 0.00053003105,
        "tle_line1": "1 67020U 25293T   25355.58335648 -.01368881  53003-3 -45376-2 0  9996",
        "tle_line2": "2 67020  69.9923 298.0716 0004283 262.4984  58.4744 15.90177581  1647"
      },
      "geometry": {
        "type": "Point",
        "coordinates": [
          141.8416313603087,
          -49.03780858086679
        ]
      }
    },
    {
      "type": "Feature",
      "properties": {
        "norad_id": 67021,
        "name": "STARLINK-36184",
        "group": "last-30-days",
        "lat": -51.34262145925135,
        "lon": 144.11833508417553,
        "alt_km": 308.51928360879265,
        "timestamp": "2025-12-21T22:41:40.167823+00:00",
        "meta_object_name": "STARLINK-36184",
        "meta_object_id": "2025-293U",
        "meta_epoch": "2025-12-21T14:00:01.999872",
        "meta_mean_motion": 15.90217966,
        "meta_eccentricity": 0.00045345,
        "meta_inclination": 69.9926,
        "meta_ra_of_asc_node": 298.0682,
        "meta_arg_of_pericenter": 268.7936,
        "meta_mean_anomaly": 54.9035,
        "meta_ephemeris_type": 0,
        "meta_classification_type": "U",
        "meta_norad_cat_id": 67021,
        "meta_element_set_no": 999,
        "meta_rev_at_epoch": 164,
        "meta_bstar": -0.0048149045,
        "meta_mean_motion_dot": -0.0145471,
        "meta_mean_motion_ddot": 0.00059322085,
        "tle_line1": "1 67021U 25293U   25355.58335648 -.01454710  59322-3 -48149-2 0  9995",
        "tle_line2": "2 67021  69.9926 298.0682 0004534 268.7936  54.9035 15.90217966  1644"
      },
      "geometry": {
        "type": "Point",
        "coordinates": [
          144.11833508417553,
          -51.34262145925135
        ]
      }
    },
    {
      "type": "Feature",
      "properties": {
        "norad_id": 67022,
        "name": "STARLINK-36209",
        "group": "last-30-days",
        "lat": -53.97177315212818,
        "lon": 147.0839956119356,
        "alt_km": 308.6062002785284,
        "timestamp": "2025-12-21T22:41:40.167835+00:00",
        "meta_object_name": "STARLINK-36209",
        "meta_object_id": "2025-293V",
        "meta_epoch": "2025-12-21T14:00:01.999872",
        "meta_mean_motion": 15.90248935,
        "meta_eccentricity": 0.00043358,
        "meta_inclination": 69.9922,
        "meta_ra_of_asc_node": 298.0645,
        "meta_arg_of_pericenter": 261.866,
        "meta_mean_anomaly": 65.0243,
        "meta_ephemeris_type": 0,
        "meta_classification_type": "U",
        "meta_norad_cat_id": 67022,
        "meta_element_set_no": 999,
        "meta_rev_at_epoch": 164,
        "meta_bstar": -0.0051720649,
        "meta_mean_motion_dot": -0.0156368,
        "meta_mean_motion_ddot": 0.00067810446,
        "tle_line1": "1 67022U 25293V   25355.58335648 -.01563680  67810-3 -51721-2 0  9994",
        "tle_line2": "2 67022  69.9922 298.0645 0004335 261.8660  65.0243 15.90248935  1641"
      },
      "geometry": {
        "type": "Point",
        "coordinates": [
          147.0839956119356,
          -53.97177315212818
        ]
      }
    },
    {
      "type": "Feature",
      "properties": {
        "norad_id": 67023,
        "name": "STARLINK-36191",
        "group": "last-30-days",
        "lat": -56.07993774139609,
        "lon": 149.82311230565762,
        "alt_km": 308.7268261525287,
        "timestamp": "2025-12-21T22:41:40.167845+00:00",
        "meta_object_name": "STARLINK-36191",
        "meta_object_id": "2025-293W",
        "meta_epoch": "2025-12-21T14:00:01.999872",
        "meta_mean_motion": 15.90282389,
        "meta_eccentricity": 0.000431,
        "meta_inclination": 69.9922,
        "meta_ra_of_asc_node": 298.0608,
        "meta_arg_of_pericenter": 262.3193,
        "meta_mean_anomaly": 67.2026,
        "meta_ephemeris_type": 0,
        "meta_classification_type": "U",
        "meta_norad_cat_id": 67023,
        "meta_element_set_no": 999,
        "meta_rev_at_epoch": 153,
        "meta_bstar": -0.0054703788,
        "meta_mean_motion_dot": -0.01655549,
        "meta_mean_motion_ddot": 0.00075389336,
        "tle_line1": "1 67023U 25293W   25355.58335648 -.01655549  75389-3 -54704-2 0  9995",
        "tle_line2": "2 67023  69.9922 298.0608 0004310 262.3193  67.2026 15.90282389  1533"
      },
      "geometry": {
        "type": "Point",
        "coordinates": [
          149.82311230565762,
          -56.07993774139609
        ]
      }
    },
    {
      "type": "Feature",
      "properties": {
        "norad_id": 67024,
        "name": "STARLINK-36192",
        "group": "last-30-days",
        "lat": -58.37020376083717,
        "lon": 153.28121323931208,
        "alt_km": 308.87501458599036,
        "timestamp": "2025-12-21T22:41:40.167855+00:00",
        "meta_object_name": "STARLINK-36192",
        "meta_object_id": "2025-293X",
        "meta_epoch": "2025-12-21T14:00:01.999872",
        "meta_mean_motion": 15.90313058,
        "meta_eccentricity": 0.00042776,
        "meta_inclination": 69.9924,
        "meta_ra_of_asc_node": 298.0577,
        "meta_arg_of_pericenter": 262.9237,
        "meta_mean_anomaly": 69.5662,
        "meta_ephemeris_type": 0,
        "meta_classification_type": "U",
        "meta_norad_cat_id": 67024,
        "meta_element_set_no": 999,
        "meta_rev_at_epoch": 164,
        "meta_bstar": -0.0057924609,
        "meta_mean_motion_dot": -0.01754495,
        "meta_mean_motion_ddot": 0.00083981989,
        "tle_line1": "1 67024U 25293X   25355.58335648 -.01754495  83982-3 -57925-2 0  9992",
        "tle_line2": "2 67024  69.9924 298.0577 0004277 262.9237  69.5662 15.90313058  1649"
      },
      "geometry": {
        "type": "Point",
        "coordinates": [
          153.28121323931208,
          -58.37020376083717
        ]
      }
    }
  ]
}